CCSDS_OMM_VERS = 2.0
CREATION_DATE  = 
ORIGINATOR     = 

OBJECT_NAME    = STARLINK-36533
OBJECT_ID      = 2026-020AC
CENTER_NAME    = EARTH
REF_FRAME      = TEME
TIME_SYSTEM    = UTC
MEAN_ELEMENT_THEORY = SGP/SGP4

EPOCH          = 2026-02-19T00:46:01.642944
MEAN_MOTION    = 15.76435954
ECCENTRICITY   = .0001822
INCLINATION    = 42.9978
RA_OF_ASC_NODE = 255.3639
ARG_OF_PERICENTER = 246.9232
MEAN_ANOMALY   = 113.1445

EPHEMERIS_TYPE = 0
CLASSIFICATION_TYPE = U
NORAD_CAT_ID   = 67643
ELEMENT_SET_NO = 999
REV_AT_EPOCH   = 314
BSTAR          = .13531E-2
MEAN_MOTION_DOT = .226545E-2
MEAN_MOTION_DDOT = 0

CCSDS_OMM_VERS = 2.0
CREATION_DATE  = 
ORIGINATOR     = 

OBJECT_NAME    = STARLINK-36623
OBJECT_ID      = 2026-020AD
CENTER_NAME    = EARTH
REF_FRAME      = TEME
TIME_SYSTEM    = UTC
MEAN_ELEMENT_THEORY = SGP/SGP4

EPOCH          = 2026-02-19T04:00:01.999584
MEAN_MOTION    = 15.76334211
ECCENTRICITY   = .0001887
INCLINATION    = 42.9987
RA_OF_ASC_NODE = 254.4518
ARG_OF_PERICENTER = 264.7112
MEAN_ANOMALY   = 178.1599

EPHEMERIS_TYPE = 0
CLASSIFICATION_TYPE = U
NORAD_CAT_ID   = 67644
ELEMENT_SET_NO = 999
REV_AT_EPOCH   = 441
BSTAR          = .33691E-3
MEAN_MOTION_DOT = .54653E-3
MEAN_MOTION_DDOT = 0

CCSDS_OMM_VERS = 2.0
CREATION_DATE  = 
ORIGINATOR     = 

OBJECT_NAME    = STARLINK-36619
OBJECT_ID      = 2026-020AE
CENTER_NAME    = EARTH
REF_FRAME      = TEME
TIME_SYSTEM    = UTC
MEAN_ELEMENT_THEORY = SGP/SGP4

EPOCH          = 2026-02-19T00:33:24.734880
MEAN_MOTION    = 15.76444627
ECCENTRICITY   = .000221
INCLINATION    = 42.9969
RA_OF_ASC_NODE = 255.2928
ARG_OF_PERICENTER = 257.7830
MEAN_ANOMALY   = 102.2792

EPHEMERIS_TYPE = 0
CLASSIFICATION_TYPE = U
NORAD_CAT_ID   = 67645
ELEMENT_SET_NO = 999
REV_AT_EPOCH   = 314
BSTAR          = .11314E-2
MEAN_MOTION_DOT = .188563E-2
MEAN_MOTION_DDOT = 0

CCSDS_OMM_VERS = 2.0
CREATION_DATE  = 
ORIGINATOR     = 

OBJECT_NAME    = ALSAT-3B
OBJECT_ID      = 2026-021A
CENTER_NAME    = EARTH
REF_FRAME      = TEME
TIME_SYSTEM    = UTC
MEAN_ELEMENT_THEORY = SGP/SGP4

EPOCH          = 2026-02-19T04:37:39.443232
MEAN_MOTION    = 15.23656491
ECCENTRICITY   = .00124
INCLINATION    = 97.4703
RA_OF_ASC_NODE = 124.6094
ARG_OF_PERICENTER = 194.1699
MEAN_ANOMALY   = 165.9192

EPHEMERIS_TYPE = 0
CLASSIFICATION_TYPE = U
NORAD_CAT_ID   = 67646
ELEMENT_SET_NO = 999
REV_AT_EPOCH   = 290
BSTAR          = .26129E-3
MEAN_MOTION_DOT = .6205E-4
MEAN_MOTION_DDOT = 0

CCSDS_OMM_VERS = 2.0
CREATION_DATE  = 
ORIGINATOR     = 

OBJECT_NAME    = CZ-2C R/B
OBJECT_ID      = 2026-021B
CENTER_NAME    = EARTH
REF_FRAME      = TEME
TIME_SYSTEM    = UTC
MEAN_ELEMENT_THEORY = SGP/SGP4

EPOCH          = 2026-02-19T03:07:45.072192
MEAN_MOTION    = 15.23572829
ECCENTRICITY   = .0153336
INCLINATION    = 97.6544
RA_OF_ASC_NODE = 125.2259
ARG_OF_PERICENTER = 75.7821
MEAN_ANOMALY   = 286.0393

EPHEMERIS_TYPE = 0
CLASSIFICATION_TYPE = U
NORAD_CAT_ID   = 67647
ELEMENT_SET_NO = 999
REV_AT_EPOCH   = 287
BSTAR          = .34358E-3
MEAN_MOTION_DOT = .11385E-3
MEAN_MOTION_DDOT = 0

CCSDS_OMM_VERS = 2.0
CREATION_DATE  = 
ORIGINATOR     = 

OBJECT_NAME    = STARLINK-36719
OBJECT_ID      = 2026-022A
CENTER_NAME    = EARTH
REF_FRAME      = TEME
TIME_SYSTEM    = UTC
MEAN_ELEMENT_THEORY = SGP/SGP4

EPOCH          = 2026-02-19T02:42:11.371968
MEAN_MOTION    = 15.75207020
ECCENTRICITY   = .0001629
INCLINATION    = 97.2828
RA_OF_ASC_NODE = 83.1605
ARG_OF_PERICENTER = 107.9742
MEAN_ANOMALY   = 252.1701

EPHEMERIS_TYPE = 0
CLASSIFICATION_TYPE = U
NORAD_CAT_ID   = 67648
ELEMENT_SET_NO = 999
REV_AT_EPOCH   = 262
BSTAR          = .61901E-3
MEAN_MOTION_DOT = .93284E-3
MEAN_MOTION_DDOT = 0

CCSDS_OMM_VERS = 2.0
CREATION_DATE  = 
ORIGINATOR     = 

OBJECT_NAME    = STARLINK-36342
OBJECT_ID      = 2026-022B
CENTER_NAME    = EARTH
REF_FRAME      = TEME
TIME_SYSTEM    = UTC
MEAN_ELEMENT_THEORY = SGP/SGP4

EPOCH          = 2026-02-19T02:41:09.662496
MEAN_MOTION    = 15.75216947
ECCENTRICITY   = .0001518
INCLINATION    = 97.2827
RA_OF_ASC_NODE = 83.1609
ARG_OF_PERICENTER = 100.6161
MEAN_ANOMALY   = 259.5275

EPHEMERIS_TYPE = 0
CLASSIFICATION_TYPE = U
NORAD_CAT_ID   = 67649
ELEMENT_SET_NO = 999
REV_AT_EPOCH   = 262
BSTAR          = .83559E-3
MEAN_MOTION_DOT = .126515E-2
MEAN_MOTION_DDOT = 0

CCSDS_OMM_VERS = 2.0
CREATION_DATE  = 
ORIGINATOR     = 

OBJECT_NAME    = STARLINK-36703
OBJECT_ID      = 2026-022C
CENTER_NAME    = EARTH
REF_FRAME      = TEME
TIME_SYSTEM    = UTC
MEAN_ELEMENT_THEORY = SGP/SGP4

EPOCH          = 2026-02-19T02:39:38.199456
MEAN_MOTION    = 15.75232018
ECCENTRICITY   = .0001583
INCLINATION    = 97.2827
RA_OF_ASC_NODE = 83.1623
ARG_OF_PERICENTER = 105.4245
MEAN_ANOMALY   = 254.7195

EPHEMERIS_TYPE = 0
CLASSIFICATION_TYPE = U
NORAD_CAT_ID   = 67650
ELEMENT_SET_NO = 999
REV_AT_EPOCH   = 262
BSTAR          = .1004E-2
MEAN_MOTION_DOT = .152602E-2
MEAN_MOTION_DDOT = 0

CCSDS_OMM_VERS = 2.0
CREATION_DATE  = 
ORIGINATOR     = 

OBJECT_NAME    = STARLINK-36696
OBJECT_ID      = 2026-022D
CENTER_NAME    = EARTH
REF_FRAME      = TEME
TIME_SYSTEM    = UTC
MEAN_ELEMENT_THEORY = SGP/SGP4

EPOCH          = 2026-02-19T02:37:05.699136
MEAN_MOTION    = 15.75200327
ECCENTRICITY   = .0001611
INCLINATION    = 97.2831
RA_OF_ASC_NODE = 83.1649
ARG_OF_PERICENTER = 117.9575
MEAN_ANOMALY   = 242.1854

EPHEMERIS_TYPE = 0
CLASSIFICATION_TYPE = U
NORAD_CAT_ID   = 67651
ELEMENT_SET_NO = 999
REV_AT_EPOCH   = 262
BSTAR          = .62145E-3
MEAN_MOTION_DOT = .93628E-3
MEAN_MOTION_DDOT = 0

CCSDS_OMM_VERS = 2.0
CREATION_DATE  = 
ORIGINATOR     = 

OBJECT_NAME    = STARLINK-36699
OBJECT_ID      = 2026-022E
CENTER_NAME    = EARTH
REF_FRAME      = TEME
TIME_SYSTEM    = UTC
MEAN_ELEMENT_THEORY = SGP/SGP4

EPOCH          = 2026-02-19T02:36:04.551264
MEAN_MOTION    = 15.75195127
ECCENTRICITY   = .0001366
INCLINATION    = 97.2828
RA_OF_ASC_NODE = 83.1659
ARG_OF_PERICENTER = 95.2890
MEAN_ANOMALY   = 264.8531

EPHEMERIS_TYPE = 0
CLASSIFICATION_TYPE = U
NORAD_CAT_ID   = 67652
ELEMENT_SET_NO = 999
REV_AT_EPOCH   = 262
BSTAR          = .97258E-4
MEAN_MOTION_DOT = .14405E-3
MEAN_MOTION_DDOT = 0

CCSDS_OMM_VERS = 2.0
CREATION_DATE  = 
ORIGINATOR     = 

OBJECT_NAME    = STARLINK-36694
OBJECT_ID      = 2026-022F
CENTER_NAME    = EARTH
REF_FRAME      = TEME
TIME_SYSTEM    = UTC
MEAN_ELEMENT_THEORY = SGP/SGP4

EPOCH          = 2026-02-19T02:33:01.403136
MEAN_MOTION    = 15.75220447
ECCENTRICITY   = .0001622
INCLINATION    = 97.2829
RA_OF_ASC_NODE = 83.1688
ARG_OF_PERICENTER = 118.8429
MEAN_ANOMALY   = 241.2999

EPHEMERIS_TYPE = 0
CLASSIFICATION_TYPE = U
NORAD_CAT_ID   = 67653
ELEMENT_SET_NO = 999
REV_AT_EPOCH   = 262
BSTAR          = .4253E-3
MEAN_MOTION_DOT = .63867E-3
MEAN_MOTION_DDOT = 0

CCSDS_OMM_VERS = 2.0
CREATION_DATE  = 
ORIGINATOR     = 

OBJECT_NAME    = STARLINK-36620
OBJECT_ID      = 2026-022G
CENTER_NAME    = EARTH
REF_FRAME      = TEME
TIME_SYSTEM    = UTC
MEAN_ELEMENT_THEORY = SGP/SGP4

EPOCH          = 2026-02-19T02:32:31.075008
MEAN_MOTION    = 15.75191144
ECCENTRICITY   = .0001633
INCLINATION    = 97.2829
RA_OF_ASC_NODE = 83.1685
ARG_OF_PERICENTER = 112.8602
MEAN_ANOMALY   = 247.2836

EPHEMERIS_TYPE = 0
CLASSIFICATION_TYPE = U
NORAD_CAT_ID   = 67654
ELEMENT_SET_NO = 999
REV_AT_EPOCH   = 262
BSTAR          = .12684E-3
MEAN_MOTION_DOT = .18833E-3
MEAN_MOTION_DDOT = 0

