STARLINK-36533          
1 67643U 26020AC  26050.03196346  .00226545  00000+0  13531-2 0  9999
2 67643  42.9978 255.3639 0001822 246.9232 113.1445 15.76435954  3147
STARLINK-36623          
1 67644U 26020AD  26050.16668981  .00054653  00000+0  33691-3 0  9992
2 67644  42.9987 254.4518 0001887 264.7112 178.1599 15.76334211  4416
STARLINK-36619          
1 67645U 26020AE  26050.02320295  .00188563  00000+0  11314-2 0  9996
2 67645  42.9969 255.2928 0002210 257.7830 102.2792 15.76444627  3146
ALSAT-3B                
1 67646U 26021A   26050.19281763  .00006205  00000+0  26129-3 0  9995
2 67646  97.4703 124.6094 0012400 194.1699 165.9192 15.23656491  2909
CZ-2C R/B               
1 67647U 26021B   26050.13038278  .00011385  00000+0  34358-3 0  9999
2 67647  97.6544 125.2259 0153336  75.7821 286.0393 15.23572829  2876
STARLINK-36719          
1 67648U 26022A   26050.11263162  .00093284  00000+0  61901-3 0  9993
2 67648  97.2828  83.1605 0001629 107.9742 252.1701 15.75207020  2627
STARLINK-36342          
1 67649U 26022B   26050.11191739  .00126515  00000+0  83559-3 0  9991
2 67649  97.2827  83.1609 0001518 100.6161 259.5275 15.75216947  2628
STARLINK-36703          
1 67650U 26022C   26050.11085879  .00152602  00000+0  10040-2 0  9990
2 67650  97.2827  83.1623 0001583 105.4245 254.7195 15.75232018  2629
STARLINK-36696          
1 67651U 26022D   26050.10909374  .00093628  00000+0  62145-3 0  9991
2 67651  97.2831  83.1649 0001611 117.9575 242.1854 15.75200327  2620
STARLINK-36699          
1 67652U 26022E   26050.10838601  .00014405  00000+0  97258-4 0  9996
2 67652  97.2828  83.1659 0001366  95.2890 264.8531 15.75195127  2627
STARLINK-36694          
1 67653U 26022F   26050.10626624  .00063867  00000+0  42530-3 0  9995
2 67653  97.2829  83.1688 0001622 118.8429 241.2999 15.75220447  2627
STARLINK-36620          
1 67654U 26022G   26050.10591522  .00018833  00000+0  12684-3 0  9994
2 67654  97.2829  83.1685 0001633 112.8602 247.2836 15.75191144  2621
